<?xml version="1.0" encoding="UTF-8" standalone="no" ?><gpx xmlns="http://www.topografix.com/GPX/1/1" xmlns:gpxx="http://www.garmin.com/xmlschemas/GpxExtensions/v3" xmlns:wptx1="http://www.garmin.com/xmlschemas/WaypointExtension/v1" xmlns:gpxtpx="http://www.garmin.com/xmlschemas/TrackPointExtension/v1" creator="Oregon 450t" version="1.1" xmlns:xsi="http://www.w3.org/2001/XMLSchema-instance" xsi:schemaLocation="http://www.topografix.com/GPX/1/1 http://www.topografix.com/GPX/1/1/gpx.xsd http://www.garmin.com/xmlschemas/GpxExtensions/v3 http://www8.garmin.com/xmlschemas/GpxExtensionsv3.xsd http://www.garmin.com/xmlschemas/WaypointExtension/v1 http://www8.garmin.com/xmlschemas/WaypointExtensionv1.xsd http://www.garmin.com/xmlschemas/TrackPointExtension/v1 http://www.garmin.com/xmlschemas/TrackPointExtensionv1.xsd"><metadata><link href="http://www.garmin.com"><text>Garmin International</text></link><time>2026-04-25T12:04:12Z</time></metadata><wpt lat="60.958536" lon="-149.151525"><ele>2642.640625</ele><time>2026-04-25T12:04:12Z</time><name>001</name><sym>Flag, Blue</sym></wpt><wpt lat="46.007943" lon="7.032885"><ele>2709.637451</ele><time>2026-04-25T12:05:19Z</time><name>002</name><sym>Flag, Blue</sym></wpt><wpt lat="46.007663" lon="7.031738"><ele>2730.897705</ele><time>2026-04-25T12:09:53Z</time><name>003</name><sym>Flag, Blue</sym></wpt><wpt lat="46.007109" lon="7.031353"><ele>2751.074707</ele><time>2026-04-25T12:14:12Z</time><name>004</name><sym>Flag, Blue</sym></wpt><wpt lat="46.006847" lon="7.032119"><ele>2773.571533</ele><time>2026-04-25T12:19:02Z</time><name>005</name><sym>Flag, Blue</sym></wpt><wpt lat="46.006465" lon="7.031656"><ele>2793.897949</ele><time>2026-04-25T12:23:24Z</time><name>006</name><sym>Flag, Blue</sym></wpt><wpt lat="46.005743" lon="7.031668"><ele>2837.294678</ele><time>2026-04-25T12:31:16Z</time><name>007</name><sym>Flag, Blue</sym></wpt><wpt lat="46.004798" lon="7.032321"><ele>2877.849854</ele><time>2026-04-25T12:38:39Z</time><name>008</name><sym>Flag, Blue</sym></wpt><wpt lat="46.004235" lon="7.032328"><ele>2924.650879</ele><time>2026-04-25T12:47:31Z</time><name>009</name><sym>Flag, Blue</sym></wpt><wpt lat="46.003482" lon="7.032965"><ele>2966.115723</ele><time>2026-04-25T12:54:14Z</time><name>010</name><sym>Flag, Blue</sym></wpt><wpt lat="46.002746" lon="7.033501"><ele>2984.302246</ele><time>2026-04-25T13:18:07Z</time><name>011</name><sym>Flag, Blue</sym></wpt><wpt lat="46.001478" lon="7.033067"><ele>2991.231934</ele><time>2026-04-25T13:23:03Z</time><name>012</name><sym>Flag, Blue</sym></wpt><wpt lat="45.999999" lon="7.032780"><ele>2998.793701</ele><time>2026-04-25T13:27:33Z</time><name>013</name><sym>Flag, Blue</sym></wpt><wpt lat="45.998957" lon="7.035107"><ele>3015.115479</ele><time>2026-04-25T13:33:38Z</time><name>014</name><sym>Flag, Blue</sym></wpt><wpt lat="45.998676" lon="7.036650"><ele>3031.138916</ele><time>2026-04-25T13:39:16Z</time><name>015</name><sym>Flag, Blue</sym></wpt><wpt lat="45.998758" lon="7.038060"><ele>3046.332764</ele><time>2026-04-25T13:43:39Z</time><name>016</name><sym>Flag, Blue</sym></wpt><wpt lat="45.998941" lon="7.039203"><ele>3058.177246</ele><time>2026-04-25T13:47:31Z</time><name>017</name><sym>Flag, Blue</sym></wpt></gpx>