<?xml version="1.0" encoding="UTF-8" standalone="no" ?><gpx xmlns="http://www.topografix.com/GPX/1/1" xmlns:gpxx="http://www.garmin.com/xmlschemas/GpxExtensions/v3" xmlns:wptx1="http://www.garmin.com/xmlschemas/WaypointExtension/v1" xmlns:gpxtpx="http://www.garmin.com/xmlschemas/TrackPointExtension/v1" creator="Oregon 450t" version="1.1" xmlns:xsi="http://www.w3.org/2001/XMLSchema-instance" xsi:schemaLocation="http://www.topografix.com/GPX/1/1 http://www.topografix.com/GPX/1/1/gpx.xsd http://www.garmin.com/xmlschemas/GpxExtensions/v3 http://www8.garmin.com/xmlschemas/GpxExtensionsv3.xsd http://www.garmin.com/xmlschemas/WaypointExtension/v1 http://www8.garmin.com/xmlschemas/WaypointExtensionv1.xsd http://www.garmin.com/xmlschemas/TrackPointExtension/v1 http://www.garmin.com/xmlschemas/TrackPointExtensionv1.xsd"><metadata><link href="http://www.garmin.com"><text>Garmin International</text></link><time>2026-04-26T05:22:51Z</time></metadata><wpt lat="45.998938" lon="7.039218"><ele>3024.511963</ele><time>2026-04-26T05:22:51Z</time><name>018</name><sym>Flag, Blue</sym></wpt><wpt lat="45.996544" lon="7.039915"><ele>3081.155273</ele><time>2026-04-26T05:35:47Z</time><name>019</name><sym>Flag, Blue</sym></wpt><wpt lat="45.995808" lon="7.037975"><ele>3092.044189</ele><time>2026-04-26T05:40:11Z</time><name>020</name><sym>Flag, Blue</sym></wpt><wpt lat="45.993049" lon="7.033964"><ele>3117.088135</ele><time>2026-04-26T05:49:07Z</time><name>021</name><sym>Flag, Blue</sym></wpt><wpt lat="45.991610" lon="7.032307"><ele>3126.163086</ele><time>2026-04-26T05:54:29Z</time><name>022</name><sym>Flag, Blue</sym></wpt><wpt lat="45.990013" lon="7.028137"><ele>3128.450684</ele><time>2026-04-26T06:00:46Z</time><name>023</name><sym>Flag, Blue</sym></wpt><wpt lat="45.989143" lon="7.024682"><ele>3165.882080</ele><time>2026-04-26T06:09:19Z</time><name>024</name><sym>Flag, Blue</sym></wpt><wpt lat="45.988137" lon="7.021177"><ele>3188.030273</ele><time>2026-04-26T06:17:20Z</time><name>025</name><sym>Flag, Blue</sym></wpt><wpt lat="45.988199" lon="7.018322"><ele>3202.166504</ele><time>2026-04-26T06:25:01Z</time><name>026</name><sym>Flag, Blue</sym></wpt><wpt lat="45.988202" lon="7.018361"><ele>3201.755859</ele><time>2026-04-26T06:26:20Z</time><name>027</name><sym>Flag, Blue</sym></wpt><wpt lat="45.988444" lon="7.013975"><ele>3261.162354</ele><time>2026-04-26T06:42:42Z</time><name>028</name><sym>Flag, Blue</sym></wpt><wpt lat="45.988534" lon="7.012386"><ele>3279.498291</ele><time>2026-04-26T06:50:42Z</time><name>029</name><sym>Flag, Blue</sym></wpt><wpt lat="45.988550" lon="7.012189"><ele>3280.960938</ele><time>2026-04-26T06:51:49Z</time><name>030</name><sym>Flag, Blue</sym></wpt><wpt lat="45.989379" lon="7.013142"><ele>3286.675781</ele><time>2026-04-26T07:06:33Z</time><name>031</name><sym>Flag, Blue</sym></wpt><wpt lat="45.990758" lon="7.014458"><ele>3298.344727</ele><time>2026-04-26T07:11:31Z</time><name>032</name><sym>Flag, Blue</sym></wpt><wpt lat="45.991993" lon="7.015696"><ele>3307.737549</ele><time>2026-04-26T07:16:16Z</time><name>033</name><sym>Flag, Blue</sym></wpt><wpt lat="45.993167" lon="7.016066"><ele>3327.215820</ele><time>2026-04-26T07:20:25Z</time><name>034</name><sym>Flag, Blue</sym></wpt><wpt lat="45.993862" lon="7.015683"><ele>3340.796387</ele><time>2026-04-26T07:24:42Z</time><name>035</name><sym>Flag, Blue</sym></wpt><wpt lat="45.993096" lon="7.014687"><ele>3358.792480</ele><time>2026-04-26T07:28:38Z</time><name>036</name><sym>Flag, Blue</sym></wpt><wpt lat="45.992197" lon="7.013933"><ele>3372.708252</ele><time>2026-04-26T07:31:24Z</time><name>037</name><sym>Flag, Blue</sym></wpt><wpt lat="45.992715" lon="7.013187"><ele>3387.514160</ele><time>2026-04-26T07:34:44Z</time><name>038</name><sym>Flag, Blue</sym></wpt><wpt lat="45.993625" lon="7.012761"><ele>3410.926025</ele><time>2026-04-26T07:39:24Z</time><name>039</name><sym>Flag, Blue</sym></wpt><wpt lat="45.994326" lon="7.012500"><ele>3422.644287</ele><time>2026-04-26T07:44:57Z</time><name>040</name><sym>Flag, Blue</sym></wpt><wpt lat="45.995034" lon="7.013326"><ele>3410.175293</ele><time>2026-04-26T08:03:18Z</time><name>041</name><sym>Flag, Blue</sym></wpt><wpt lat="45.995042" lon="7.013311"><ele>3411.058105</ele><time>2026-04-26T08:03:26Z</time><name>042</name><sym>Flag, Blue</sym></wpt><wpt lat="45.996136" lon="7.014738"><ele>3368.633301</ele><time>2026-04-26T08:05:31Z</time><name>043</name><sym>Flag, Blue</sym></wpt><wpt lat="45.997466" lon="7.015282"><ele>3346.861816</ele><time>2026-04-26T08:07:06Z</time><name>044</name><sym>Flag, Blue</sym></wpt><wpt lat="45.996213" lon="7.016196"><ele>3329.359131</ele><time>2026-04-26T08:08:27Z</time><name>045</name><sym>Flag, Blue</sym></wpt><wpt lat="45.996991" lon="7.017403"><ele>3295.768066</ele><time>2026-04-26T08:10:05Z</time><name>046</name><sym>Flag, Blue</sym></wpt><wpt lat="45.995897" lon="7.018168"><ele>3272.315186</ele><time>2026-04-26T08:11:29Z</time><name>047</name><sym>Flag, Blue</sym></wpt><wpt lat="45.994560" lon="7.019131"><ele>3258.831787</ele><time>2026-04-26T08:13:39Z</time><name>048</name><sym>Flag, Blue</sym></wpt><wpt lat="45.993488" lon="7.019338"><ele>3245.863525</ele><time>2026-04-26T08:14:47Z</time><name>049</name><sym>Flag, Blue</sym></wpt><wpt lat="45.996117" lon="7.020208"><ele>3209.596680</ele><time>2026-04-26T08:16:44Z</time><name>050</name><sym>Flag, Blue</sym></wpt><wpt lat="45.997633" lon="7.020246"><ele>3184.376221</ele><time>2026-04-26T08:18:17Z</time><name>051</name><sym>Flag, Blue</sym></wpt><wpt lat="45.996851" lon="7.021289"><ele>3167.560547</ele><time>2026-04-26T08:20:49Z</time><name>052</name><sym>Flag, Blue</sym></wpt><wpt lat="45.995774" lon="7.022341"><ele>3141.243652</ele><time>2026-04-26T08:22:34Z</time><name>053</name><sym>Flag, Blue</sym></wpt><wpt lat="45.994513" lon="7.025284"><ele>3098.105225</ele><time>2026-04-26T08:24:58Z</time><name>054</name><sym>Flag, Blue</sym></wpt><wpt lat="45.994597" lon="7.029477"><ele>3075.026611</ele><time>2026-04-26T08:26:25Z</time><name>055</name><sym>Flag, Blue</sym></wpt><wpt lat="45.994800" lon="7.029702"><ele>3074.352051</ele><time>2026-04-26T08:27:52Z</time><name>056</name><sym>Flag, Blue</sym></wpt></gpx>